{
  "type": "FeatureCollection",
  "features": [
    {
      "type": "Feature",
      "properties": {
        "norad_id": 37238,
        "name": "INTELSAT 17 (IS-17)",
        "group": "intelsat",
        "lat": -0.0005996861755394641,
        "lon": -50.24242017167812,
        "alt_km": 35779.377864418515,
        "timestamp": "2025-12-11T10:53:15.553287+00:00",
        "meta_object_name": "INTELSAT 17 (IS-17)",
        "meta_object_id": "2010-065B",
        "meta_epoch": "2025-12-11T03:33:12.001248",
        "meta_mean_motion": 1.00270919,
        "meta_eccentricity": 0.0002478,
        "meta_inclination": 0.0096,
        "meta_ra_of_asc_node": 287.8523,
        "meta_arg_of_pericenter": 333.2966,
        "meta_mean_anomaly": 298.2763,
        "meta_ephemeris_type": 0,
        "meta_classification_type": "U",
        "meta_norad_cat_id": 37238,
        "meta_element_set_no": 999,
        "meta_rev_at_epoch": 5136,
        "meta_bstar": 0,
        "meta_mean_motion_dot": 4e-08,
        "meta_mean_motion_ddot": 0,
        "tle_line1": "1 37238U 10065B   25345.14805557  .00000004  00000+0  00000+0 0  9991",
        "tle_line2": "2 37238   0.0096 287.8523 0002478 333.2966 298.2763  1.00270919 51369"
      },
      "geometry": {
        "type": "Point",
        "coordinates": [
          -50.24242017167812,
          -0.0005996861755394641
        ]
      }
    },
    {
      "type": "Feature",
      "properties": {
        "norad_id": 37392,
        "name": "INTELSAT 28 (IS-28)",
        "group": "intelsat",
        "lat": 1.0418993059731398,
        "lon": -147.99791435948873,
        "alt_km": 35776.11317851297,
        "timestamp": "2025-12-11T10:53:15.553299+00:00",
        "meta_object_name": "INTELSAT 28 (IS-28)",
        "meta_object_id": "2011-016A",
        "meta_epoch": "2025-12-11T03:05:14.675712",
        "meta_mean_motion": 1.00272049,
        "meta_eccentricity": 0.00039,
        "meta_inclination": 1.3208,
        "meta_ra_of_asc_node": 85.0765,
        "meta_arg_of_pericenter": 180.6237,
        "meta_mean_anomaly": 189.0086,
        "meta_ephemeris_type": 0,
        "meta_classification_type": "U",
        "meta_norad_cat_id": 37392,
        "meta_element_set_no": 999,
        "meta_rev_at_epoch": 5140,
        "meta_bstar": 0,
        "meta_mean_motion_dot": -2.19e-06,
        "meta_mean_motion_ddot": 0,
        "tle_line1": "1 37392U 11016A   25345.12864208 -.00000219  00000+0  00000+0 0  9994",
        "tle_line2": "2 37392   1.3208  85.0765 0003900 180.6237 189.0086  1.00272049 51407"
      },
      "geometry": {
        "type": "Point",
        "coordinates": [
          -147.99791435948873,
          1.0418993059731398
        ]
      }
    },
    {
      "type": "Feature",
      "properties": {
        "norad_id": 37834,
        "name": "INTELSAT 18 (IS-18)",
        "group": "intelsat",
        "lat": 0.02626096995589147,
        "lon": 63.726959904363746,
        "alt_km": 35793.90270975819,
        "timestamp": "2025-12-11T10:53:15.553310+00:00",
        "meta_object_name": "INTELSAT 18 (IS-18)",
        "meta_object_id": "2011-056A",
        "meta_epoch": "2025-12-11T02:22:56.229024",
        "meta_mean_motion": 1.00270777,
        "meta_eccentricity": 0.0001946,
        "meta_inclination": 0.0159,
        "meta_ra_of_asc_node": 293.7648,
        "meta_arg_of_pericenter": 333.2866,
        "meta_mean_anomaly": 28.7422,
        "meta_ephemeris_type": 0,
        "meta_classification_type": "U",
        "meta_norad_cat_id": 37834,
        "meta_element_set_no": 999,
        "meta_rev_at_epoch": 5192,
        "meta_bstar": 0,
        "meta_mean_motion_dot": 5.8e-07,
        "meta_mean_motion_ddot": 0,
        "tle_line1": "1 37834U 11056A   25345.09926191  .00000058  00000+0  00000+0 0  9995",
        "tle_line2": "2 37834   0.0159 293.7648 0001946 333.2866  28.7422  1.00270777 51925"
      },
      "geometry": {
        "type": "Point",
        "coordinates": [
          63.726959904363746,
          0.02626096995589147
        ]
      }
    },
    {
      "type": "Feature",
      "properties": {
        "norad_id": 38098,
        "name": "INTELSAT 22 (IS-22)",
        "group": "intelsat",
        "lat": -0.010891406597406757,
        "lon": -44.138472105045466,
        "alt_km": 35781.47830816979,
        "timestamp": "2025-12-11T10:53:15.553322+00:00",
        "meta_object_name": "INTELSAT 22 (IS-22)",
        "meta_object_id": "2012-011A",
        "meta_epoch": "2025-12-11T01:52:12.726912",
        "meta_mean_motion": 1.00270968,
        "meta_eccentricity": 0.0001719,
        "meta_inclination": 0.0033,
        "meta_ra_of_asc_node": 354.8921,
        "meta_arg_of_pericenter": 272.6322,
        "meta_mean_anomaly": 272.6955,
        "meta_ephemeris_type": 0,
        "meta_classification_type": "U",
        "meta_norad_cat_id": 38098,
        "meta_element_set_no": 999,
        "meta_rev_at_epoch": 530,
        "meta_bstar": 0,
        "meta_mean_motion_dot": -5.3e-07,
        "meta_mean_motion_ddot": 0,
        "tle_line1": "1 38098U 12011A   25345.07792508 -.00000053  00000+0  00000+0 0  9997",
        "tle_line2": "2 38098   0.0033 354.8921 0001719 272.6322 272.6955  1.00270968  5307"
      },
      "geometry": {
        "type": "Point",
        "coordinates": [
          -44.138472105045466,
          -0.010891406597406757
        ]
      }
    },
    {
      "type": "Feature",
      "properties": {
        "norad_id": 38356,
        "name": "INTELSAT 19 (IS-19)",
        "group": "intelsat",
        "lat": 0.026145725834562494,
        "lon": 49.757525185570685,
        "alt_km": 35797.46108401673,
        "timestamp": "2025-12-11T10:53:15.553334+00:00",
        "meta_object_name": "INTELSAT 19 (IS-19)",
        "meta_object_id": "2012-030A",
        "meta_epoch": "2025-12-11T05:17:38.740992",
        "meta_mean_motion": 1.00272125,
        "meta_eccentricity": 0.0003469,
        "meta_inclination": 0.0092,
        "meta_ra_of_asc_node": 339.326,
        "meta_arg_of_pericenter": 289.0605,
        "meta_mean_anomaly": 57.2169,
        "meta_ephemeris_type": 0,
        "meta_classification_type": "U",
        "meta_norad_cat_id": 38356,
        "meta_element_set_no": 999,
        "meta_rev_at_epoch": 4856,
        "meta_bstar": 0,
        "meta_mean_motion_dot": -5e-07,
        "meta_mean_motion_ddot": 0,
        "tle_line1": "1 38356U 12030A   25345.22058728 -.00000050  00000+0  00000+0 0  9998",
        "tle_line2": "2 38356   0.0092 339.3260 0003469 289.0605  57.2169  1.00272125 48569"
      },
      "geometry": {
        "type": "Point",
        "coordinates": [
          49.757525185570685,
          0.026145725834562494
        ]
      }
    },
    {
      "type": "Feature",
      "properties": {
        "norad_id": 38740,
        "name": "INTELSAT 20 (IS-20)",
        "group": "intelsat",
        "lat": -0.0008864334311667174,
        "lon": -47.739724612884416,
        "alt_km": 35793.4225338059,
        "timestamp": "2025-12-11T10:53:15.553346+00:00",
        "meta_object_name": "INTELSAT 20 (IS-20)",
        "meta_object_id": "2012-043A",
        "meta_epoch": "2025-12-11T02:03:38.556288",
        "meta_mean_motion": 1.00271347,
        "meta_eccentricity": 0.0002797,
        "meta_inclination": 0.0063,
        "meta_ra_of_asc_node": 85.143,
        "meta_arg_of_pericenter": 99.0256,
        "meta_mean_anomaly": 355.3044,
        "meta_ephemeris_type": 0,
        "meta_classification_type": "U",
        "meta_norad_cat_id": 38740,
        "meta_element_set_no": 999,
        "meta_rev_at_epoch": 4886,
        "meta_bstar": 0,
        "meta_mean_motion_dot": -1.9e-07,
        "meta_mean_motion_ddot": 0,
        "tle_line1": "1 38740U 12043A   25345.08586292 -.00000019  00000+0  00000+0 0  9990",
        "tle_line2": "2 38740   0.0063  85.1430 0002797  99.0256 355.3044  1.00271347 48865"
      },
      "geometry": {
        "type": "Point",
        "coordinates": [
          -47.739724612884416,
          -0.0008864334311667174
        ]
      }
    },
    {
      "type": "Feature",
      "properties": {
        "norad_id": 38749,
        "name": "INTELSAT 21 (IS-21)",
        "group": "intelsat",
        "lat": 0.007569931570783276,
        "lon": -174.30561976796324,
        "alt_km": 35784.097541936244,
        "timestamp": "2025-12-11T10:53:15.553359+00:00",
        "meta_object_name": "INTELSAT 21 (IS-21)",
        "meta_object_id": "2012-045A",
        "meta_epoch": "2025-12-11T02:57:45.393120",
        "meta_mean_motion": 1.00269979,
        "meta_eccentricity": 0.0002071,
        "meta_inclination": 0.0201,
        "meta_ra_of_asc_node": 57.3275,
        "meta_arg_of_pericenter": 201.6078,
        "meta_mean_anomaly": 167.587,
        "meta_ephemeris_type": 0,
        "meta_classification_type": "U",
        "meta_norad_cat_id": 38749,
        "meta_element_set_no": 999,
        "meta_rev_at_epoch": 4863,
        "meta_bstar": 0,
        "meta_mean_motion_dot": -2.79e-06,
        "meta_mean_motion_ddot": 0,
        "tle_line1": "1 38749U 12045A   25345.12344205 -.00000279  00000+0  00000+0 0  9990",
        "tle_line2": "2 38749   0.0201  57.3275 0002071 201.6078 167.5870  1.00269979 48637"
      },
      "geometry": {
        "type": "Point",
        "coordinates": [
          -174.30561976796324,
          0.007569931570783276
        ]
      }
    }
  ]
}